IRIDIUM 155             
1 43573U 18061E   23155.76842024 -.00000108  00000+0 -45695-4 0  9990
2 43573  86.3980 159.9444 0002390  84.7291 275.4177 14.34216327254488
IRIDIUM 154             
1 43574U 18061F   23155.74938511  .00000149  00000+0  46250-4 0  9997
2 43574  86.3980 160.0321 0002406  95.5486 264.5984 14.34218417254533
IRIDIUM 163             
1 43575U 18061G   23156.42804028  .00000186  00000+0  59447-4 0  9992
2 43575  86.3977 159.6983 0002298  93.1797 266.9662 14.34218346254604
IRIDIUM 156             
1 43576U 18061H   23156.40266349  .00000017  00000+0 -94836-6 0  9996
2 43576  86.3976 159.7146 0002274  83.9328 276.2127 14.34215715254581
IRIDIUM 164             
1 43577U 18061J   23155.75571984  .00000150  00000+0  46362-4 0  9994
2 43577  86.3979 160.0081 0002206  93.2525 266.8923 14.34219152254540
IRIDIUM 159             
1 43578U 18061K   23156.07285280  .00000147  00000+0  45303-4 0  9992
2 43578  86.3976 159.8359 0002438  90.5540 269.5935 14.34220029254555
IRIDIUM 180             
1 43922U 19002A   23155.86304119  .00000282  00000+0  93750-4 0  9999
2 43922  86.3959  96.8173 0002247  89.2096 270.9357 14.34216890230135
IRIDIUM 176             
1 43923U 19002B   23156.14929038  .00000054  00000+0  46489-5 0  9990
2 43923  86.6093  96.7364 0002481  87.2864 272.8637 14.72240131236225
IRIDIUM 168             
1 43924U 19002C   23155.92646703  .00000239  00000+0  78264-4 0  9991
2 43924  86.3961  96.8368 0002358  89.1884 270.9582 14.34215485230121
IRIDIUM 173             
1 43925U 19002D   23155.91378320  .00000231  00000+0  75341-4 0  9993
2 43925  86.3958  96.7763 0002370  89.4473 270.6994 14.34218480230107
IRIDIUM 169             
1 43926U 19002E   23156.15922814  .00000353  00000+0  10888-3 0  9993
2 43926  86.4214 128.2893 0005428  54.4943 305.6761 14.38616469230924
IRIDIUM 172             
1 43927U 19002F   23155.90743969  .00000297  00000+0  99034-4 0  9996
2 43927  86.3957  96.7835 0002345  86.1811 273.9653 14.34218253230117
IRIDIUM 175             
1 43928U 19002G   23155.87113063  .00001057  00000+0  16368-3 0  9992
2 43928  86.1508  91.3665 0002477  87.0459 273.1041 14.72232687236178
IRIDIUM 171             
1 43929U 19002H   23155.88841137  .00000221  00000+0  71976-4 0  9993
2 43929  86.3967  96.9748 0002347  89.7072 270.4392 14.34218681230101
IRIDIUM 170             
1 43930U 19002J   23156.08755242  .00001019  00000+0  15780-3 0  9995
2 43930  86.6091  96.7673 0002406  88.4762 271.6731 14.72237362236225
IRIDIUM 167             
1 43931U 19002K   23155.88206853  .00000285  00000+0  94794-4 0  9999
2 43931  86.3958  96.8066 0002235  89.9397 270.2055 14.34216446230105
IRIDIUM 181             
1 56726U 23068S   23155.93340181  .00001381  00000+0  17788-3 0  9996
2 56726  86.6757 133.9531 0002529 120.1653 239.9819 14.80347534  2426
IRIDIUM 177             
1 56727U 23068T   23155.92753387  .00000457  00000+0  56597-4 0  9997
2 56727  86.6744 133.9480 0002321 115.7989 244.3472 14.80322394  2420
IRIDIUM 174             
1 56728U 23068U   23155.92326337  .00001410  00000+0  17797-3 0  9997
2 56728  86.6803 133.9562 0005458 146.2313 213.9257 14.81196252  2428
IRIDIUM 178             
1 56729U 23068V   23155.91620523  .00000556  00000+0  69764-4 0  9993
2 56729  86.6750 133.9410 0001965 102.3168 257.8274 14.80229323  2423
IRIDIUM 179             
1 56730U 23068W   23155.91032496  .00001403  00000+0  18120-3 0  9992
2 56730  86.6787 133.9455 0001904 100.7488 259.3948 14.80244395  2425
